[{"OBJECT_NAME":"IRIDIUM 169","OBJECT_ID":"2019-002E","EPOCH":"2026-03-09T22:14:17.748384","MEAN_MOTION":14.38612437,"ECCENTRICITY":0.00014131,"INCLINATION":86.4172,"RA_OF_ASC_NODE":66.6873,"ARG_OF_PERICENTER":82.9186,"MEAN_ANOMALY":277.2173,"EPHEMERIS_TYPE":0,"CLASSIFICATION_TYPE":"U","NORAD_CAT_ID":43926,"ELEMENT_SET_NO":999,"REV_AT_EPOCH":37595,"BSTAR":6.3248636e-5,"MEAN_MOTION_DOT":2.13e-6,"MEAN_MOTION_DDOT":0},{"OBJECT_NAME":"NOAA 16 DEB","OBJECT_ID":"2000-055HQ","EPOCH":"2026-03-09T00:01:54.906816","MEAN_MOTION":14.34194971,"ECCENTRICITY":0.00166189,"INCLINATION":98.7014,"RA_OF_ASC_NODE":144.9498,"ARG_OF_PERICENTER":285.6387,"MEAN_ANOMALY":74.2963,"EPHEMERIS_TYPE":0,"CLASSIFICATION_TYPE":"U","NORAD_CAT_ID":41347,"ELEMENT_SET_NO":999,"REV_AT_EPOCH":52286,"BSTAR":0.0027947652,"MEAN_MOTION_DOT":7.808e-5,"MEAN_MOTION_DDOT":0}]
